[Satellite]
VERSION=1.1
NAME=SWIFT
NICKNAME=SWIFT
TLE1=1 28485U 04047A   20157.24159256  .00000719  00000-0  18523-4 0  9991
TLE2=2 28485  20.5565 110.3668 0010873 262.0921  97.8279 15.04619352851639
STATUS=0
